#aV2016  3 21  0  0  0.00000000     288 DD+AD WGS84 FIT  NGA
## 1889  86400.00000000   300.00000000 57468 0.0000000000000
+   31     1  2  3  5  6  7  8  9 10 11 12 13 14 15 16 17 18
+         19 20 21 22 23 24 25 26 27 28 29 30 31 32  0  0  0
+          0  0  0  0  0  0  0  0  0  0  0  0  0  0  0  0  0
+          0  0  0  0  0  0  0  0  0  0  0  0  0  0  0  0  0
+          0  0  0  0  0  0  0  0  0  0  0  0  0  0  0  0  0
++         2  2  2  2  2  2  2  2  2  2  2  2  2  2  2  2  2
++         2  2  2  2  2  2  2  2  2  2  2  2  2  2  0  0  0
++         0  0  0  0  0  0  0  0  0  0  0  0  0  0  0  0  0
++         0  0  0  0  0  0  0  0  0  0  0  0  0  0  0  0  0
++         0  0  0  0  0  0  0  0  0  0  0  0  0  0  0  0  0
%c cc cc ccc ccc cccc cccc cccc cccc ccccc ccccc ccccc ccccc
%c cc cc ccc ccc cccc cccc cccc cccc ccccc ccccc ccccc ccccc
%f  0.0000000  0.000000000  0.00000000000  0.000000000000000
%f  0.0000000  0.000000000  0.00000000000  0.000000000000000
%i    0    0    0    0      0      0      0      0         0
%i    0    0    0    0      0      0      0      0         0
/*      NGA, ST. LOUIS,MO.                                  
/*   EPHEMERIS COMPUTED FROM 2 DAYS OF DATA                 
/*   EPOCHA v2.4 SMOOTHER                                   
/*   G1762 IERS2010 SATAF SATAPC                            
*  2016  3 21 14 20  0.00000000
P  1 -13869.826127   8139.300962  21024.179004     14.997416                    
V  1  -3441.412060 -26694.319255   8255.925489      0.010914                    
P  2  13951.005331  15849.662246 -15923.458781    598.910632                    
V  2    845.861784  20997.410774  20672.885682     -0.003920                    
P  3 -22898.788682  12680.777304   4546.918152    -38.637215                    
V  3   3036.109839  -5639.616674  31024.554987     -0.043503                    
P  5  18225.143672   3609.578410 -19120.573415   -135.719211                    
V  5 -18526.747122  15500.427208 -14590.021519      0.032787                    
P  6   6346.999124  25254.637128  -5224.865434    163.746873                    
V  6  -1931.506354   6892.366799  30890.336239      0.058011                    
P  7  -6533.519223  22468.815345 -12047.763883    464.170244                    
V  7  -3757.986554 -15390.538166 -26765.113908     -0.018825                    
P  8 -24841.167305  -4527.174128   8339.477658    -28.329080                    
V  8  -8607.946280  -6529.160837 -29355.949589     -0.014171                    
P  9  -9724.961349  12305.775433 -21454.107687     94.239672                    
V  9 -24760.178556 -11307.340134   4729.100785      0.075370                    
P 10   2516.009955 -18348.480341  19029.843459     22.206091                    
V 10  20326.481315 -13130.724767 -15415.795666     -0.090394                    
P 11 -16581.314187   2758.257620  20021.673096   -637.573783                    
V 11 -11347.910308 -24464.747964  -5818.051059     -0.015500                    
P 12  23499.769826  -9167.345794   7826.141664    373.290508                    
V 12  -7434.520641   7155.048797  30450.430472      0.015022                    
P 13  23310.308079  12520.747441   1511.785609     -5.139862                    
V 13    503.000724   3259.155434 -31976.638110     -0.028091                    
P 14  -7844.907388 -18333.198890  17871.699824     -3.817882                    
V 14  20142.347985   9265.316915  18461.184940     -0.022234                    
P 15  24190.128168    210.731965  11225.022251   -302.770760                    
V 15  12403.908439   7856.599311 -26237.774966     -0.017754                    
P 16 -17257.067407  -4578.430956 -19890.829926    -30.516613                    
V 16  20754.494393 -13677.561739 -14548.325700      0.029090                    
P 17   6514.358540  17720.450775  19087.498111   -202.309821                    
V 17 -21416.783551  -9586.014240  16310.931171     -0.004323                    
P 18  12796.330262 -20533.042002  11176.650959    496.056421                    
V 18  12838.381903  -5607.500688 -26518.956163      0.041221                    
P 19  15916.375576  17691.333408  11148.767689   -525.392312                    
V 19 -13948.588429  -5041.210116  27727.747420     -0.001568                    
P 20  22683.801018 -11026.164234  -8563.639256    400.769672                    
V 20  -5844.804410   9624.983802 -28334.314123      0.025252                    
P 21   2895.175436 -24685.490598  -8223.627622   -515.809615                    
V 21   5179.867292  11001.982931 -28898.384332     -0.016290                    
P 22 -20408.152885   -784.722399  17318.692900    377.461913                    
V 22  15757.633954 -14904.039875  17980.415040     -0.068056                    
P 23 -20019.633851   4458.804192 -16928.546573   -165.708056                    
V 23 -19107.022846 -10472.490316  19195.997382     -0.017842                    
P 24  14855.526943  -4715.187721  21435.893608    -14.261649                    
V 24   3876.788820  27135.270654   3465.297686     -0.006554                    
P 25  19918.220407 -17125.599350  -3253.761182   -138.252322                    
V 25   4634.697078   -427.586039  31926.993508     -0.070227                    
P 26  -8539.523864 -12599.214197 -21767.064935   -301.041309                    
V 26  22306.389058 -16316.417434    738.645315     -0.144502                    
P 27 -23773.564597 -11890.874181  -1908.211058     74.196788                    
V 27   3134.325666  -1210.865918 -31738.997480      0.037612                    
P 28  -4603.115739  17973.875247  19616.500558    510.655114                    
V 28 -20431.372781  11670.969139 -16053.840502      0.025739                    
P 29  13070.873067  -9345.078326 -21122.997476    656.142639                    
V 29  23562.386380  12835.136837   8939.500223      0.005240                    
P 30   -671.939995  26409.629351  -2246.370897    108.977870                    
V 30  -3235.830610  -2739.747181 -31459.391060      0.038263                    
P 31  -6958.432712 -24229.094703  -7644.034914    277.413890                    
V 31   1919.758859 -10096.318737  30197.346665     -0.017194                    
P 32 -10005.161597 -17562.708474  17231.603289      9.576598                    
V 32  20738.161190   7194.158029  19372.958797     -0.006566                    
EOF
